[{"OBJECT_NAME":"JILIN-01 KUANFU 02B 6","OBJECT_ID":"2024-169F","EPOCH":"2026-03-09T21:43:38.712288","MEAN_MOTION":15.09238946,"ECCENTRICITY":0.00150747,"INCLINATION":97.5549,"RA_OF_ASC_NODE":159.9459,"ARG_OF_PERICENTER":324.4254,"MEAN_ANOMALY":35.5968,"EPHEMERIS_TYPE":0,"CLASSIFICATION_TYPE":"U","NORAD_CAT_ID":61194,"ELEMENT_SET_NO":999,"REV_AT_EPOCH":8086,"BSTAR":0.00036442477,"MEAN_MOTION_DOT":5.751e-5,"MEAN_MOTION_DDOT":0},{"OBJECT_NAME":"STARLINK-35220","OBJECT_ID":"2025-211K","EPOCH":"2026-03-09T16:48:09.392544","MEAN_MOTION":15.05653544,"ECCENTRICITY":9.4e-5,"INCLINATION":97.6021,"RA_OF_ASC_NODE":114.0797,"ARG_OF_PERICENTER":113.0996,"MEAN_ANOMALY":247.033,"EPHEMERIS_TYPE":0,"CLASSIFICATION_TYPE":"U","NORAD_CAT_ID":65661,"ELEMENT_SET_NO":999,"REV_AT_EPOCH":2704,"BSTAR":0.00018175142,"MEAN_MOTION_DOT":2.563e-5,"MEAN_MOTION_DDOT":0}]
